SHIJIAN-25 (SJ-25)      
1 62485U 25002A   26183.76460027 -.00000341  00000+0  00000+0 0  9993
2 62485   5.1479  61.0664 0051630 174.7980  87.5189  1.00272141  5514
TJS-14                  
1 62804U 25017A   26186.29521638  .00000129  00000+0  00000+0 0  9994
2 62804   0.7438 296.8369 0001473 289.2468 181.8645  1.00272379  5459
SPAINSAT NG I           
1 62852U 25021A   26186.15473037  .00000164  00000+0  00000+0 0  9995
2 62852   0.0181  18.8064 0000076 122.4686 226.5700  1.00270133  4164
QZS-6 (MICHIBIKI-6)     
1 62876U 25023A   26186.12753038 -.00000220  00000+0  00000+0 0  9996
2 62876   0.0384 287.6374 0002005 192.6145 299.3168  1.00270647  5121
ZHONGXING-10R           
1 63075U 25036A   26186.02830425 -.00000339  00000+0  00000+0 0  9998
2 63075   0.0512 232.4168 0004171 276.6524 254.6773  1.00269607  5136
TJS-15                  
1 63157U 25045A   26183.75929199 -.00000254  00000+0  00000+0 0  9999
2 63157   0.3058  85.5733 0003804 301.9252 260.9777  1.00274962  4911
TIANLIAN 2-04           
1 63361U 25062A   26186.16487042 -.00000121  00000+0  00000+0 0  9992
2 63361   4.3310 274.1757 0031216   9.6760 138.7204  1.00270771  4785
TJS-16                  
1 63397U 25064A   26183.69857794 -.00000095  00000+0  00000+0 0  9993
2 63397   1.1359  81.3849 0002939 299.1841 312.2806  1.00272015  4542
TJS-17                  
1 63524U 25073A   26183.77560743 -.00000059  00000+0  00000+0 0  9999
2 63524   1.1020  82.5843 0001564 315.8143 326.1705  1.00271016  4441
TIANLIAN 2-05           
1 63662U 25084A   26185.93907582  .00000138  00000+0  00000+0 0  9997
2 63662   4.4088 279.6252 0003080 152.4261 209.3829  1.00269158  4564
TJS-19                  
1 63924U 25097A   26183.75314255 -.00000263  00000+0  00000+0 0  9999
2 63924   3.2611 317.6772 0003438 238.0724 137.4555  1.00271699  4308
CHINASAT 3B             
1 64062U 25106A   26185.89697028 -.00000030  00000+0  00000+0 0  9995
2 64062   0.0413 190.5871 0004040 312.7273 269.8013  1.00282752  4237
SXM-10                  
1 64290U 25122A   26185.91206581 -.00000004  00000+0  00000+0 0  9990
2 64290   0.0161  33.4889 0001885 335.8876 125.7252  1.00272103  3865
COSMOS 2589             
1 64467U 25131A   26183.75492887 -.00000280  00000+0  00000+0 0  9998
2 64467   0.0398 102.1054 0000936 108.8979  79.5624  1.00272301  3712
CHINASAT 9C             
1 64470U 25132A   26186.16686376 -.00000234  00000+0  00000+0 0  9998
2 64470   0.0452 232.6482 0003164 234.3002 328.5022  1.00272893  4322
MTG-S1                  
1 64723U 25143A   26186.22018031  .00000005  00000+0  00000+0 0  9990
2 64723   0.5901 342.7253 0003114 262.2554 117.0515  1.00272435  3603
DROR 1                  
1 64784U 25148A   26186.17405731 -.00000021  00000+0  00000+0 0  9992
2 64784   0.0147  34.6543 0002304   5.9983 301.1743  1.00272390  3478
SHIYAN-29               
1 65486U 25196A   26186.02763137 -.00000268  00000+0  00000+0 0  9999
2 65486  28.8398  18.3104 0013486 175.4686 194.3460  1.00280374  3066
NUSANTARA LIMA (NUSANT*)
1 65588U 25205A   26186.09997296 -.00000344  00000+0  00000+0 0  9990
2 65588   0.0138 137.1599 0000585  12.5207 282.2664  1.00271576  2894
TJS-20                  
1 66142U 25238A   26186.01166308  .00000039  00000+0  00000+0 0  9997
2 66142   5.4315 299.4732 0004650 173.4933 236.6328  1.00272626  2514
CMS-03 (GSAT-7R)        
1 66311U 25249B   26186.16365708 -.00000064  00000+0  00000+0 0  9997
2 66311   0.0515 255.9198 0001881 179.6143 340.5229  1.00271716  2527
VIASAT-3 F2             
1 66454U 25261A   26185.84815336 -.00000221  00000+0  00000+0 0  9995
2 66454   0.0243 193.5267 0000838   6.2058 309.4859  1.00273171  2977
SHIJIAN-28 (SJ-28)      
1 66549U 25277A   26186.02925759 -.00000346  00000+0  00000+0 0  9997
2 66549   4.4945 271.8457 0000872  40.7260  97.8520  1.00273297  2338
TJS-22                  
1 66990U 25290A   26185.82845433  .00000006  00000+0  00000+0 0  9991
2 66990   1.4860 286.7932 0002275 320.1206  40.6645  1.00273951  2205
TJS-23                  
1 67226U 25306A   26185.55436945  .00000030  00000+0  00000+0 0  9993
2 67226   5.5486 297.3980 0004749 187.4066 172.8000  1.00272950  2069
FENGYUN 4C              
1 67246U 25312A   26186.31786068 -.00000310  00000+0  00000+0 0  9993
2 67246   0.0413 175.7466 0000573  18.1958 336.8032  1.00271189  1968
SHIJIAN-29A (SJ-29A)    
1 67302U 25315A   26186.09217293 -.00000055  00000+0  00000+0 0  9999
2 67302   3.4405  94.6918 0003477  28.3123 266.4013  1.00271021  1796
SHIJIAN-29B (SJ-29B)    
1 67403U 25315C   26186.09217293 -.00000056  00000+0  00000+0 0  9992
2 67403   3.4395  94.6846 0004807  45.6916 249.0780  1.00272453  1862
ELEKTRO-L 5             
1 67756U 26028A   26186.00260666 -.00000085  00000+0  00000+0 0  9990
2 67756   0.2215 319.5715 0001876 179.6791 220.7628  1.00272021  1436
JAM-E JAM 1             
1 67757U 26028B   26186.15568370  .00000169  00000+0  00000+0 0  9992
2 67757   0.2255 308.1610 0001337 333.8864  91.1817  1.00269523  1305
ECHOSTAR 25             
1 68126U 26045A   26185.55686855  .00000000  00000+0  00000+0 0  9998
2 68126   0.0217  39.4582 0001683  78.1383 255.4537  1.00271095  1168
TJS-24                  
1 69235U 26116A   26186.16677709 -.00000219  00000+0  00000+0 0  9998
2 69235   0.0528  99.4241 0000158  14.8563 319.2197  1.00273397   400
