OBJECT_NAME,OBJECT_ID,EPOCH,MEAN_MOTION,ECCENTRICITY,INCLINATION,RA_OF_ASC_NODE,ARG_OF_PERICENTER,MEAN_ANOMALY,EPHEMERIS_TYPE,CLASSIFICATION_TYPE,NORAD_CAT_ID,ELEMENT_SET_NO,REV_AT_EPOCH,BSTAR,MEAN_MOTION_DOT,MEAN_MOTION_DDOT
SHIJIAN-25 (SJ-25),2025-002A,2026-07-02T18:21:01.463328,1.00272141,.005163,5.1479,61.0664,174.7980,87.5189,0,U,62485,999,551,0,-.341E-5,0
TJS-14,2025-017A,2026-07-05T07:05:06.695232,1.00272379,.00014733,0.7438,296.8369,289.2468,181.8645,0,U,62804,999,545,0,.129E-5,0
SPAINSAT NG I,2025-021A,2026-07-05T03:42:48.703968,1.00270133,.00000769,0.0181,18.8064,122.4686,226.5700,0,U,62852,999,416,0,.164E-5,0
QZS-6 (MICHIBIKI-6),2025-023A,2026-07-05T03:03:38.624832,1.00270647,.00020053,0.0384,287.6374,192.6145,299.3168,0,U,62876,999,512,0,-.22E-5,0
ZHONGXING-10R,2025-036A,2026-07-05T00:40:45.487200,1.00269607,.0004171,0.0512,232.4168,276.6524,254.6773,0,U,63075,999,513,0,-.339E-5,0
TJS-15,2025-045A,2026-07-02T18:13:22.827936,1.00274962,.0003804,0.3058,85.5733,301.9252,260.9777,0,U,63157,999,491,0,-.254E-5,0
TIANLIAN 2-04,2025-062A,2026-07-05T03:57:24.804288,1.00270771,.00312167,4.3310,274.1757,9.6760,138.7204,0,U,63361,999,478,0,-.121E-5,0
TJS-16,2025-064A,2026-07-02T16:45:57.134016,1.00272015,.0002939,1.1359,81.3849,299.1841,312.2806,0,U,63397,999,454,0,-.95E-6,0
TJS-17,2025-073A,2026-07-02T18:36:52.481952,1.00271016,.0001564,1.1020,82.5843,315.8143,326.1705,0,U,63524,999,444,0,-.59E-6,0
TIANLIAN 2-05,2025-084A,2026-07-04T22:32:16.150848,1.00269158,.00030802,4.4088,279.6252,152.4261,209.3829,0,U,63662,999,456,0,.138E-5,0
TJS-19,2025-097A,2026-07-02T18:04:31.516320,1.00271699,.0003438,3.2611,317.6772,238.0724,137.4555,0,U,63924,999,430,0,-.263E-5,0
CHINASAT 3B,2025-106A,2026-07-04T21:31:38.232192,1.00282752,.00040402,0.0413,190.5871,312.7273,269.8013,0,U,64062,999,423,0,-.3E-6,0
SXM-10,2025-122A,2026-07-04T21:53:22.485984,1.00272103,.00018856,0.0161,33.4889,335.8876,125.7252,0,U,64290,999,386,0,-.4E-7,0
COSMOS 2589,2025-131A,2026-07-02T18:07:05.854368,1.00272301,.0000936,0.0398,102.1054,108.8979,79.5624,0,U,64467,999,371,0,-.28E-5,0
CHINASAT 9C,2025-132A,2026-07-05T04:00:17.028864,1.00272893,.00031643,0.0452,232.6482,234.3002,328.5022,0,U,64470,999,432,0,-.234E-5,0
MTG-S1,2025-143A,2026-07-05T05:17:03.578784,1.00272435,.00031148,0.5901,342.7253,262.2554,117.0515,0,U,64723,999,360,0,.5E-7,0
DROR 1,2025-148A,2026-07-05T04:10:38.551584,1.00272390,.00023044,0.0147,34.6543,5.9983,301.1743,0,U,64784,999,347,0,-.21E-6,0
SHIYAN-29,2025-196A,2026-07-05T00:39:47.350368,1.00280374,.00134863,28.8398,18.3104,175.4686,194.3460,0,U,65486,999,306,0,-.268E-5,0
NUSANTARA LIMA (NUSANTARA 5),2025-205A,2026-07-05T02:23:57.663744,1.00271576,.00005856,0.0138,137.1599,12.5207,282.2664,0,U,65588,999,289,0,-.344E-5,0
TJS-20,2025-238A,2026-07-05T00:16:47.690112,1.00272626,.00046507,5.4315,299.4732,173.4933,236.6328,0,U,66142,999,251,0,.39E-6,0
CMS-03 (GSAT-7R),2025-249B,2026-07-05T03:55:39.971712,1.00271716,.00018812,0.0515,255.9198,179.6143,340.5229,0,U,66311,999,252,0,-.64E-6,0
VIASAT-3 F2,2025-261A,2026-07-04T20:21:20.450304,1.00273171,.00008383,0.0243,193.5267,6.2058,309.4859,0,U,66454,999,297,0,-.221E-5,0
SHIJIAN-28 (SJ-28),2025-277A,2026-07-05T00:42:07.855776,1.00273297,.00008727,4.4945,271.8457,40.7260,97.8520,0,U,66549,999,233,0,-.346E-5,0
TJS-22,2025-290A,2026-07-04T19:52:58.454112,1.00273951,.00022757,1.4860,286.7932,320.1206,40.6645,0,U,66990,999,220,0,.6E-7,0
TJS-23,2025-306A,2026-07-04T13:18:17.520480,1.00272950,.00047496,5.5486,297.3980,187.4066,172.8000,0,U,67226,999,206,0,.3E-6,0
FENGYUN 4C,2025-312A,2026-07-05T07:37:43.162752,1.00271189,.00005735,0.0413,175.7466,18.1958,336.8032,0,U,67246,999,196,0,-.31E-5,0
SHIJIAN-29A (SJ-29A),2025-315A,2026-07-05T02:12:43.741152,1.00271021,.00034779,3.4405,94.6918,28.3123,266.4013,0,U,67302,999,179,0,-.55E-6,0
SHIJIAN-29B (SJ-29B),2025-315C,2026-07-05T02:12:43.741152,1.00272453,.00048075,3.4395,94.6846,45.6916,249.0780,0,U,67403,999,186,0,-.56E-6,0
ELEKTRO-L 5,2026-028A,2026-07-05T00:03:45.215424,1.00272021,.00018769,0.2215,319.5715,179.6791,220.7628,0,U,67756,999,143,0,-.85E-6,0
JAM-E JAM 1,2026-028B,2026-07-05T03:44:11.071680,1.00269523,.00013373,0.2255,308.1610,333.8864,91.1817,0,U,67757,999,130,0,.169E-5,0
ECHOSTAR 25,2026-045A,2026-07-04T13:21:53.442720,1.00271095,.0001683,0.0217,39.4582,78.1383,255.4537,0,U,68126,999,116,0,0,0
TJS-24,2026-116A,2026-07-05T04:00:09.540576,1.00273397,.00001584,0.0528,99.4241,14.8563,319.2197,0,U,69235,999,40,0,-.219E-5,0
